[{"OBJECT_NAME":"SILVERSAT","OBJECT_ID":"1998-067XV","EPOCH":"2026-04-21T10:00:08.915904","MEAN_MOTION":16.15331909,"ECCENTRICITY":0.00131383,"INCLINATION":51.6081,"RA_OF_ASC_NODE":201.2837,"ARG_OF_PERICENTER":340.8561,"MEAN_ANOMALY":19.196,"EPHEMERIS_TYPE":0,"CLASSIFICATION_TYPE":"U","NORAD_CAT_ID":66909,"ELEMENT_SET_NO":999,"REV_AT_EPOCH":2197,"BSTAR":0.0017496522,"MEAN_MOTION_DOT":0.02238858,"MEAN_MOTION_DDOT":0.0060623342},{"OBJECT_NAME":"ISS OBJECT XW","OBJECT_ID":"1998-067XW","EPOCH":"2026-04-22T05:56:20.899104","MEAN_MOTION":15.86546605,"ECCENTRICITY":0.00111869,"INCLINATION":51.6179,"RA_OF_ASC_NODE":200.913,"ARG_OF_PERICENTER":340.1151,"MEAN_ANOMALY":19.9416,"EPHEMERIS_TYPE":0,"CLASSIFICATION_TYPE":"U","NORAD_CAT_ID":66910,"ELEMENT_SET_NO":999,"REV_AT_EPOCH":2205,"BSTAR":0.0010464179,"MEAN_MOTION_DOT":0.00280045,"MEAN_MOTION_DDOT":0},{"OBJECT_NAME":"ISS OBJECT XY","OBJECT_ID":"1998-067XY","EPOCH":"2026-04-22T06:58:28.104384","MEAN_MOTION":15.73309284,"ECCENTRICITY":0.00075575,"INCLINATION":51.6229,"RA_OF_ASC_NODE":205.0237,"ARG_OF_PERICENTER":337.2306,"MEAN_ANOMALY":22.8357,"EPHEMERIS_TYPE":0,"CLASSIFICATION_TYPE":"U","NORAD_CAT_ID":66912,"ELEMENT_SET_NO":999,"REV_AT_EPOCH":2199,"BSTAR":0.00073471932,"MEAN_MOTION_DOT":0.00104604,"MEAN_MOTION_DDOT":0},{"OBJECT_NAME":"KNACKSAT-2","OBJECT_ID":"1998-067XZ","EPOCH":"2026-04-21T07:25:13.634112","MEAN_MOTION":15.55273526,"ECCENTRICITY":0.00119777,"INCLINATION":51.6303,"RA_OF_ASC_NODE":219.5073,"ARG_OF_PERICENTER":346.875,"MEAN_ANOMALY":13.1928,"EPHEMERIS_TYPE":0,"CLASSIFICATION_TYPE":"U","NORAD_CAT_ID":67683,"ELEMENT_SET_NO":999,"REV_AT_EPOCH":1141,"BSTAR":0.00059840435,"MEAN_MOTION_DOT":0.00041155,"MEAN_MOTION_DDOT":0},{"OBJECT_NAME":"CORAL","OBJECT_ID":"1998-067YA","EPOCH":"2026-04-22T07:28:20.944128","MEAN_MOTION":15.61983599,"ECCENTRICITY":0.00159363,"INCLINATION":51.6271,"RA_OF_ASC_NODE":212.694,"ARG_OF_PERICENTER":343.6161,"MEAN_ANOMALY":16.4316,"EPHEMERIS_TYPE":0,"CLASSIFICATION_TYPE":"U","NORAD_CAT_ID":67684,"ELEMENT_SET_NO":999,"REV_AT_EPOCH":1159,"BSTAR":0.00083163372,"MEAN_MOTION_DOT":0.00074589,"MEAN_MOTION_DDOT":0},{"OBJECT_NAME":"GXIBA-1","OBJECT_ID":"1998-067YB","EPOCH":"2026-04-21T23:53:26.341728","MEAN_MOTION":15.56112947,"ECCENTRICITY":0.00139667,"INCLINATION":51.6289,"RA_OF_ASC_NODE":215.8397,"ARG_OF_PERICENTER":346.7819,"MEAN_ANOMALY":13.2804,"EPHEMERIS_TYPE":0,"CLASSIFICATION_TYPE":"U","NORAD_CAT_ID":67685,"ELEMENT_SET_NO":999,"REV_AT_EPOCH":1152,"BSTAR":0.00057561332,"MEAN_MOTION_DOT":0.00040871,"MEAN_MOTION_DDOT":0},{"OBJECT_NAME":"UITMSAT-2","OBJECT_ID":"1998-067YC","EPOCH":"2026-04-21T13:49:59.556864","MEAN_MOTION":15.57578897,"ECCENTRICITY":0.0010869,"INCLINATION":51.6287,"RA_OF_ASC_NODE":217.5437,"ARG_OF_PERICENTER":325.3971,"MEAN_ANOMALY":34.6312,"EPHEMERIS_TYPE":0,"CLASSIFICATION_TYPE":"U","NORAD_CAT_ID":67686,"ELEMENT_SET_NO":999,"REV_AT_EPOCH":1146,"BSTAR":0.00070302,"MEAN_MOTION_DOT":0.0005285,"MEAN_MOTION_DDOT":0},{"OBJECT_NAME":"HMU-SAT2","OBJECT_ID":"1998-067YD","EPOCH":"2026-04-22T00:07:06.087648","MEAN_MOTION":15.55783513,"ECCENTRICITY":0.0010188,"INCLINATION":51.6313,"RA_OF_ASC_NODE":215.9088,"ARG_OF_PERICENTER":328.7019,"MEAN_ANOMALY":31.3365,"EPHEMERIS_TYPE":0,"CLASSIFICATION_TYPE":"U","NORAD_CAT_ID":67687,"ELEMENT_SET_NO":999,"REV_AT_EPOCH":1144,"BSTAR":0.00057038888,"MEAN_MOTION_DOT":0.00039917,"MEAN_MOTION_DDOT":0},{"OBJECT_NAME":"LEOPARD","OBJECT_ID":"1998-067YE","EPOCH":"2026-04-21T00:20:14.298432","MEAN_MOTION":15.56843109,"ECCENTRICITY":0.00104936,"INCLINATION":51.6305,"RA_OF_ASC_NODE":220.5395,"ARG_OF_PERICENTER":323.1792,"MEAN_ANOMALY":36.8478,"EPHEMERIS_TYPE":0,"CLASSIFICATION_TYPE":"U","NORAD_CAT_ID":67688,"ELEMENT_SET_NO":999,"REV_AT_EPOCH":1129,"BSTAR":0.00065932554,"MEAN_MOTION_DOT":0.00048143,"MEAN_MOTION_DDOT":0},{"OBJECT_NAME":"CREW DRAGON 12","OBJECT_ID":"2026-031A","EPOCH":"2026-04-22T04:47:46.932000","MEAN_MOTION":15.48885886,"ECCENTRICITY":0.00067323,"INCLINATION":51.6321,"RA_OF_ASC_NODE":217.2027,"ARG_OF_PERICENTER":336.5555,"MEAN_ANOMALY":23.5126,"EPHEMERIS_TYPE":0,"CLASSIFICATION_TYPE":"U","NORAD_CAT_ID":67796,"ELEMENT_SET_NO":999,"REV_AT_EPOCH":56317,"BSTAR":0.0001613791,"MEAN_MOTION_DOT":8.419e-5,"MEAN_MOTION_DDOT":0},{"OBJECT_NAME":"PROGRESS-MS 33","OBJECT_ID":"2026-058A","EPOCH":"2026-04-22T04:47:46.932000","MEAN_MOTION":15.48885886,"ECCENTRICITY":0.00067323,"INCLINATION":51.6321,"RA_OF_ASC_NODE":217.2027,"ARG_OF_PERICENTER":336.5555,"MEAN_ANOMALY":23.5126,"EPHEMERIS_TYPE":0,"CLASSIFICATION_TYPE":"U","NORAD_CAT_ID":68319,"ELEMENT_SET_NO":999,"REV_AT_EPOCH":316,"BSTAR":0.0001613791,"MEAN_MOTION_DOT":8.419e-5,"MEAN_MOTION_DDOT":0},{"OBJECT_NAME":"CYGNUS NG-24","OBJECT_ID":"2026-079A","EPOCH":"2026-04-22T04:47:46.932000","MEAN_MOTION":15.48885886,"ECCENTRICITY":0.00067323,"INCLINATION":51.6321,"RA_OF_ASC_NODE":217.2027,"ARG_OF_PERICENTER":336.5555,"MEAN_ANOMALY":23.5126,"EPHEMERIS_TYPE":0,"CLASSIFICATION_TYPE":"U","NORAD_CAT_ID":68689,"ELEMENT_SET_NO":999,"REV_AT_EPOCH":165,"BSTAR":0.0001613791,"MEAN_MOTION_DOT":8.419e-5,"MEAN_MOTION_DDOT":0}]
