SILVERSAT               
1 66909U 98067XV  26111.41676986  .02238858  60623-2  17497-2 0  9993
2 66909  51.6081 201.2837 0013138 340.8561  19.1960 16.15331909 21972
ISS OBJECT XW           
1 66910U 98067XW  26112.24746411  .00280045  00000+0  10464-2 0  9998
2 66910  51.6179 200.9130 0011186 340.1151  19.9416 15.86546605 22055
ISS OBJECT XY           
1 66912U 98067XY  26112.29060306  .00104604  00000+0  73472-3 0  9992
2 66912  51.6229 205.0237 0007557 337.2306  22.8357 15.73309284 21998
KNACKSAT-2              
1 67683U 98067XZ  26111.30918558  .00041155  00000+0  59840-3 0  9994
2 67683  51.6303 219.5073 0011977 346.8750  13.1928 15.55273526 11417
CORAL                   
1 67684U 98067YA  26112.31135352  .00074589  00000+0  83163-3 0  9992
2 67684  51.6271 212.6940 0015936 343.6161  16.4316 15.61983599 11590
GXIBA-1                 
1 67685U 98067YB  26111.99544377  .00040871  00000+0  57561-3 0  9997
2 67685  51.6289 215.8397 0013966 346.7819  13.2804 15.56112947 11521
UITMSAT-2               
1 67686U 98067YC  26111.57638376  .00052850  00000+0  70302-3 0  9993
2 67686  51.6287 217.5437 0010869 325.3971  34.6312 15.57578897 11460
HMU-SAT2                
1 67687U 98067YD  26112.00493157  .00039917  00000+0  57039-3 0  9990
2 67687  51.6313 215.9088 0010188 328.7019  31.3365 15.55783513 11440
LEOPARD                 
1 67688U 98067YE  26111.01405438  .00048143  00000+0  65933-3 0  9999
2 67688  51.6305 220.5395 0010493 323.1792  36.8478 15.56843109 11298
CREW DRAGON 12          
1 67796U 26031A   26112.19984875  .00008419  00000+0  16138-3 0  9993
2 67796  51.6321 217.2027 0006732 336.5555  23.5126 15.48885886563178
PROGRESS-MS 33          
1 68319U 26058A   26112.19984875  .00008419  00000+0  16138-3 0  9994
2 68319  51.6321 217.2027 0006732 336.5555  23.5126 15.48885886  3168
CYGNUS NG-24            
1 68689U 26079A   26112.19984875  .00008419  00000+0  16138-3 0  9997
2 68689  51.6321 217.2027 0006732 336.5555  23.5126 15.48885886  1650
